start=new Date('2022-07-15T00:00:00.000Z').valueOf();
sats=[{"ECCENTRICITY":"0.00016940","RA_OF_ASC_NODE":"286.8873","BSTAR":"-0.05356000000000","LAUNCH_DATE":"2022-05-06","TIME_SYSTEM":"UTC","DECAY_DATE":null,"MEAN_ANOMALY":"150.3027","MEAN_ELEMENT_THEORY":"SGP4","SITE":"AFETR","NORAD_CAT_ID":"52464","PERIOD":"94.746","FILE":"3513976","ARG_OF_PERICENTER":"49.4638","GP_ID":"208137772","RCS_SIZE":"LARGE","COUNTRY_CODE":"US","MEAN_MOTION_DDOT":"0.0000000000000","SEMIMAJOR_AXIS":"6884.413","OBJECT_NAME":"STARLINK-3904","PERIAPSIS":"505.112","INCLINATION":"53.2174","MEAN_MOTION_DOT":"-0.01064594","REV_AT_EPOCH":"130","MEAN_MOTION":"15.19855659","ELEMENT_SET_NO":"999","CLASSIFICATION_TYPE":"U","TLE_LINE2":"2 52464  53.2174 286.8873 0001694  49.4638 150.3027 15.19855659  1307","APOAPSIS":"507.445","EPOCH":"2022-07-14T22:00:00.999936","OBJECT_ID":"2022-049P","REF_FRAME":"TEME","OBJECT_TYPE":"PAYLOAD","CENTER_NAME":"EARTH","TLE_LINE1":"1 52464U 22049P   22195.91667824 -.01064594  00000-0 -53560-1 0  9991","EPHEMERIS_TYPE":"0"},{"APOAPSIS":"367.998","REV_AT_EPOCH":"130","TLE_LINE2":"2 52465  53.2175 282.3489 0001036  73.6815 344.2174 15.67068041  1300","CLASSIFICATION_TYPE":"U","ELEMENT_SET_NO":"999","MEAN_MOTION":"15.67068041","REF_FRAME":"TEME","EPHEMERIS_TYPE":"0","TLE_LINE1":"1 52465U 22049Q   22195.91667824 -.01052018  00000-0 -10778-1 0  9994","CENTER_NAME":"EARTH","OBJECT_TYPE":"PAYLOAD","EPOCH":"2022-07-14T22:00:00.999936","OBJECT_ID":"2022-049Q","MEAN_MOTION_DDOT":"0.0000000000000","GP_ID":"208137611","RCS_SIZE":"LARGE","COUNTRY_CODE":"US","PERIAPSIS":"366.601","OBJECT_NAME":"STARLINK-3863","INCLINATION":"53.2175","MEAN_MOTION_DOT":"-0.01052018","SEMIMAJOR_AXIS":"6745.435","MEAN_ANOMALY":"344.2174","DECAY_DATE":null,"FILE":"3513976","ARG_OF_PERICENTER":"73.6815","PERIOD":"91.891","SITE":"AFETR","NORAD_CAT_ID":"52465","MEAN_ELEMENT_THEORY":"SGP4","RA_OF_ASC_NODE":"282.3489","ECCENTRICITY":"0.00010360","LAUNCH_DATE":"2022-05-06","TIME_SYSTEM":"UTC","BSTAR":"-0.01077800000000"},{"OBJECT_TYPE":"PAYLOAD","CENTER_NAME":"EARTH","TLE_LINE1":"1 52466U 22049R   22195.91667824 -.01065955  00000-0 -52260-1 0  9991","EPHEMERIS_TYPE":"0","REF_FRAME":"TEME","OBJECT_ID":"2022-049R","EPOCH":"2022-07-14T22:00:00.999936","APOAPSIS":"504.652","ELEMENT_SET_NO":"999","MEAN_MOTION":"15.20740991","CLASSIFICATION_TYPE":"U","TLE_LINE2":"2 52466  53.2174 286.9023 0001520  57.0452 186.6997 15.20740991  1306","REV_AT_EPOCH":"130","MEAN_MOTION_DOT":"-0.01065955","PERIAPSIS":"502.560","INCLINATION":"53.2174","OBJECT_NAME":"STARLINK-3840","SEMIMAJOR_AXIS":"6881.741","MEAN_MOTION_DDOT":"0.0000000000000","COUNTRY_CODE":"US","RCS_SIZE":"LARGE","GP_ID":"208137306","FILE":"3513976","ARG_OF_PERICENTER":"57.0452","NORAD_CAT_ID":"52466","SITE":"AFETR","MEAN_ELEMENT_THEORY":"SGP4","PERIOD":"94.691","MEAN_ANOMALY":"186.6997","DECAY_DATE":null,"TIME_SYSTEM":"UTC","LAUNCH_DATE":"2022-05-06","BSTAR":"-0.05226000000000","RA_OF_ASC_NODE":"286.9023","ECCENTRICITY":"0.00015200"},{"RA_OF_ASC_NODE":"286.8975","ECCENTRICITY":"0.00015070","BSTAR":"-0.05269500000000","LAUNCH_DATE":"2022-05-06","TIME_SYSTEM":"UTC","DECAY_DATE":null,"MEAN_ANOMALY":"168.8782","PERIOD":"94.709","MEAN_ELEMENT_THEORY":"SGP4","SITE":"AFETR","NORAD_CAT_ID":"52467","ARG_OF_PERICENTER":"60.3446","FILE":"3513976","GP_ID":"208137876","COUNTRY_CODE":"US","RCS_SIZE":"LARGE","MEAN_MOTION_DDOT":"0.0000000000000","SEMIMAJOR_AXIS":"6882.632","PERIAPSIS":"503.459","INCLINATION":"53.2174","OBJECT_NAME":"STARLINK-3873","MEAN_MOTION_DOT":"-0.01065571","REV_AT_EPOCH":"130","CLASSIFICATION_TYPE":"U","TLE_LINE2":"2 52467  53.2174 286.8975 0001507  60.3446 168.8782 15.20445932  1308","MEAN_MOTION":"15.20445932","ELEMENT_SET_NO":"999","APOAPSIS":"505.534","EPOCH":"2022-07-14T22:00:00.999936","OBJECT_ID":"2022-049S","REF_FRAME":"TEME","CENTER_NAME":"EARTH","TLE_LINE1":"1 52467U 22049S   22195.91667824 -.01065571  00000-0 -52695-1 0  9998","EPHEMERIS_TYPE":"0","OBJECT_TYPE":"PAYLOAD"},{"NORAD_CAT_ID":"52468","SITE":"AFETR","MEAN_ELEMENT_THEORY":"SGP4","PERIOD":"94.636","ARG_OF_PERICENTER":"50.2695","FILE":"3513976","DECAY_DATE":null,"MEAN_ANOMALY":"236.2174","BSTAR":"-0.05096700000000","TIME_SYSTEM":"UTC","LAUNCH_DATE":"2022-05-06","ECCENTRICITY":"0.00015180","RA_OF_ASC_NODE":"286.9165","OBJECT_ID":"2022-049T","EPOCH":"2022-07-14T22:00:00.999936","OBJECT_TYPE":"PAYLOAD","EPHEMERIS_TYPE":"0","TLE_LINE1":"1 52468U 22049T   22195.91667824 -.01067006  00000-0 -50967-1 0  9994","CENTER_NAME":"EARTH","REF_FRAME":"TEME","MEAN_MOTION":"15.21626153","ELEMENT_SET_NO":"999","CLASSIFICATION_TYPE":"U","TLE_LINE2":"2 52468  53.2174 286.9165 0001518  50.2695 236.2174 15.21626153  1309","REV_AT_EPOCH":"130","APOAPSIS":"501.981","SEMIMAJOR_AXIS":"6879.072","MEAN_MOTION_DOT":"-0.01067006","OBJECT_NAME":"STARLINK-3864","PERIAPSIS":"499.893","INCLINATION":"53.2174","RCS_SIZE":"LARGE","COUNTRY_CODE":"US","GP_ID":"208137409","MEAN_MOTION_DDOT":"0.0000000000000"},{"REV_AT_EPOCH":"130","ELEMENT_SET_NO":"999","MEAN_MOTION":"15.21036194","TLE_LINE2":"2 52469  53.2173 286.9072 0001686  44.6875 213.4420 15.21036194  1300","CLASSIFICATION_TYPE":"U","APOAPSIS":"503.876","EPOCH":"2022-07-14T22:00:00.999936","OBJECT_ID":"2022-049U","REF_FRAME":"TEME","OBJECT_TYPE":"PAYLOAD","EPHEMERIS_TYPE":"0","TLE_LINE1":"1 52469U 22049R   22195.91667824 -.01066509  00000-0 -51835-1 0  9997","CENTER_NAME":"EARTH","GP_ID":"208137975","RCS_SIZE":"LARGE","COUNTRY_CODE":"US","MEAN_MOTION_DDOT":"0.0000000000000","SEMIMAJOR_AXIS":"6880.851","PERIAPSIS":"501.556","OBJECT_NAME":"STARLINK-3828","INCLINATION":"53.2173","MEAN_MOTION_DOT":"-0.01066509","DECAY_DATE":null,"MEAN_ANOMALY":"213.4420","SITE":"AFETR","NORAD_CAT_ID":"52469","MEAN_ELEMENT_THEORY":"SGP4","PERIOD":"94.672","ARG_OF_PERICENTER":"44.6875","FILE":"3513976","ECCENTRICITY":"0.00016860","RA_OF_ASC_NODE":"286.9072","BSTAR":"-0.05183500000000","LAUNCH_DATE":"2022-05-06","TIME_SYSTEM":"UTC"},{"REF_FRAME":"TEME","OBJECT_TYPE":"PAYLOAD","TLE_LINE1":"1 52470U 22049V   22195.91667824 -.01067387  00000-0 -50103-1 0  9991","CENTER_NAME":"EARTH","EPHEMERIS_TYPE":"0","EPOCH":"2022-07-14T22:00:00.999936","OBJECT_ID":"2022-049V","APOAPSIS":"500.200","REV_AT_EPOCH":"130","MEAN_MOTION":"15.22216103","ELEMENT_SET_NO":"999","CLASSIFICATION_TYPE":"U","TLE_LINE2":"2 52470  53.2174 286.9255 0001512  46.3873 267.9074 15.22216103  1301","PERIAPSIS":"498.120","OBJECT_NAME":"STARLINK-3859","INCLINATION":"53.2174","MEAN_MOTION_DOT":"-0.01067387","SEMIMAJOR_AXIS":"6877.295","MEAN_MOTION_DDOT":"0.0000000000000","GP_ID":"208137671","RCS_SIZE":"LARGE","COUNTRY_CODE":"US","ARG_OF_PERICENTER":"46.3873","FILE":"3513976","SITE":"AFETR","NORAD_CAT_ID":"52470","MEAN_ELEMENT_THEORY":"SGP4","PERIOD":"94.599","MEAN_ANOMALY":"267.9074","DECAY_DATE":null,"LAUNCH_DATE":"2022-05-06","TIME_SYSTEM":"UTC","BSTAR":"-0.05010300000000","ECCENTRICITY":"0.00015120","RA_OF_ASC_NODE":"286.9255"},{"OBJECT_ID":"2022-049W","EPOCH":"2022-07-14T22:00:00.999936","OBJECT_TYPE":"PAYLOAD","TLE_LINE1":"1 52471U 22049W   22195.91667824 -.01066807  00000-0 -51403-1 0  9992","EPHEMERIS_TYPE":"0","CENTER_NAME":"EARTH","REF_FRAME":"TEME","MEAN_MOTION":"15.21331208","ELEMENT_SET_NO":"999","TLE_LINE2":"2 52471  53.2173 286.9120 0001518  52.2988 220.0780 15.21331208  1308","CLASSIFICATION_TYPE":"U","REV_AT_EPOCH":"130","APOAPSIS":"502.871","SEMIMAJOR_AXIS":"6879.961","MEAN_MOTION_DOT":"-0.01066807","PERIAPSIS":"500.782","OBJECT_NAME":"STARLINK-3862","INCLINATION":"53.2173","COUNTRY_CODE":"US","RCS_SIZE":"LARGE","GP_ID":"208137514","MEAN_MOTION_DDOT":"0.0000000000000","NORAD_CAT_ID":"52471","SITE":"AFETR","MEAN_ELEMENT_THEORY":"SGP4","PERIOD":"94.654","FILE":"3513976","ARG_OF_PERICENTER":"52.2988","DECAY_DATE":null,"MEAN_ANOMALY":"220.0780","BSTAR":"-0.05140300000000","TIME_SYSTEM":"UTC","LAUNCH_DATE":"2022-05-06","ECCENTRICITY":"0.00015180","RA_OF_ASC_NODE":"286.9120"},{"MEAN_ANOMALY":"288.8696","DECAY_DATE":null,"FILE":"3513976","ARG_OF_PERICENTER":"39.4107","SITE":"AFETR","MEAN_ELEMENT_THEORY":"SGP4","NORAD_CAT_ID":"52472","PERIOD":"94.581","ECCENTRICITY":"0.00016360","RA_OF_ASC_NODE":"286.9292","TIME_SYSTEM":"UTC","LAUNCH_DATE":"2022-05-06","BSTAR":"-0.04969400000000","APOAPSIS":"499.437","MEAN_MOTION":"15.22497740","ELEMENT_SET_NO":"999","CLASSIFICATION_TYPE":"U","TLE_LINE2":"2 52472  53.2174 286.9292 0001636  39.4107 288.8696 15.22497740  1304","REV_AT_EPOCH":"130","OBJECT_TYPE":"PAYLOAD","CENTER_NAME":"EARTH","TLE_LINE1":"1 52472U 22049X   22195.91667824 -.01067582  00000-0 -49694-1 0  9993","EPHEMERIS_TYPE":"0","REF_FRAME":"TEME","OBJECT_ID":"2022-049X","EPOCH":"2022-07-14T22:00:00.999936","MEAN_MOTION_DDOT":"0.0000000000000","RCS_SIZE":"LARGE","COUNTRY_CODE":"US","GP_ID":"208137773","MEAN_MOTION_DOT":"-0.01067582","INCLINATION":"53.2174","PERIAPSIS":"497.187","OBJECT_NAME":"STARLINK-3881","SEMIMAJOR_AXIS":"6876.447"},{"REV_AT_EPOCH":"130","CLASSIFICATION_TYPE":"U","TLE_LINE2":"2 52473  53.2174 286.9211 0001512  48.3526 252.1068 15.21921164  1301","ELEMENT_SET_NO":"999","MEAN_MOTION":"15.21921164","APOAPSIS":"501.088","EPOCH":"2022-07-14T22:00:00.999936","OBJECT_ID":"2022-049Y","REF_FRAME":"TEME","EPHEMERIS_TYPE":"0","TLE_LINE1":"1 52473U 22049Y   22195.91667824 -.01067264  00000-0 -50537-1 0  9999","CENTER_NAME":"EARTH","OBJECT_TYPE":"PAYLOAD","GP_ID":"208137612","RCS_SIZE":"LARGE","COUNTRY_CODE":"US","MEAN_MOTION_DDOT":"0.0000000000000","SEMIMAJOR_AXIS":"6878.183","PERIAPSIS":"499.008","INCLINATION":"53.2174","OBJECT_NAME":"STARLINK-3879","MEAN_MOTION_DOT":"-0.01067264","DECAY_DATE":null,"MEAN_ANOMALY":"252.1068","PERIOD":"94.617","SITE":"AFETR","MEAN_ELEMENT_THEORY":"SGP4","NORAD_CAT_ID":"52473","ARG_OF_PERICENTER":"48.3526","FILE":"3513976","ECCENTRICITY":"0.00015120","RA_OF_ASC_NODE":"286.9211","BSTAR":"-0.05053700000000","LAUNCH_DATE":"2022-05-06","TIME_SYSTEM":"UTC"}];
